STARLINK-4580           
1 53579C 22101BE  26084.20256944  .00036596  00000+0  22949-2 0   848
2 53579  53.2175 344.0757 0001539  79.1593 251.9105 15.08818665    18
STARLINK-4691           
1 53588C 22104A   26084.21090278  .00036878  00000+0  23124-2 0   847
2 53588  53.2151 174.6915 0001298  96.0417 294.8501 15.08822203    19
STARLINK-4673           
1 53589C 22104B   26084.25395833  .00022909  00000+0  14363-2 0   842
2 53589  53.2152 174.2989 0001323  94.0141 270.9981 15.08834582    19
STARLINK-4689           
1 53590C 22104C   26084.25812500  .00019879  00000+0  12467-2 0   844
2 53590  53.2152 174.4398 0001283  92.8768 214.7031 15.08824127    19
STARLINK-4674           
1 53591C 22104D   26084.24423611  .00023362  00000+0  14645-2 0   847
2 53591  53.2156 174.4633 0001309  95.4183 156.6955 15.08838649    18
STARLINK-4672           
1 53592C 22104E   26084.29979167  .00000769  00000+0  48198-4 0   843
2 53592  53.2154 174.1846 0001342  94.1979 114.6509 15.08846739    14
STARLINK-4681           
1 53594C 22104G   26084.30673611  .00502520  00000+0  21286-1 0   840
2 53594  53.2185 173.3410 0001222  79.4836 227.1863 15.22385510    17
STARLINK-4684           
1 53595C 22104H   26084.28243056 -.00057410  00000+0 -36033-2 0   846
2 53595  53.2149 174.1335 0001561  76.7582 103.0376 15.08833719    11
STARLINK-4676           
1 53598C 22104L   26084.21923611  .00033689  00000+0  21123-2 0   848
2 53598  53.2145 174.1454 0001372  98.5258 237.9886 15.08826547    18
STARLINK-4677           
1 53600C 22104N   26084.30187500 -.00001912  00000+0 -11984-3 0   842
2 53600  53.2147 174.4390 0001293  97.9274 342.0762 15.08849363    11
STARLINK-4675           
1 53601C 22104P   26084.31229167 -.00005894  00000+0 -36947-3 0   849
2 53601  53.2139 173.8431 0001312  92.9551 329.2073 15.08852980    18
STARLINK-4648           
1 53602C 22104Q   26084.21506944  .00026963  00000+0  16905-2 0   849
2 53602  53.2150 169.3624 0001357  91.7088 129.5282 15.08831066    12
STARLINK-4692           
1 53603C 22104R   26084.31715278 -.00013171  00000+0 -82554-3 0   846
2 53603  53.2152 169.1406 0001336  95.6537 200.2360 15.08861659    15
STARLINK-4690           
1 53604C 22104S   26084.29979167 -.00005912  00000+0 -37068-3 0   847
2 53604  53.2146 168.9018 0001296  88.3794 273.3545 15.08846754    19
STARLINK-4693           
1 53605C 22104T   26084.20881944  .00360310  00000+0  15733-1 0   841
2 53605  53.2165 173.5729 0001094  72.7715 168.5581 15.21425506    16
STARLINK-4590           
1 53606C 22104U   26084.30881944 -.00016293  00000+0 -10215-2 0   844
2 53606  53.2147 164.1175 0001339  93.3900 184.7406 15.08852100    10
STARLINK-4591           
1 53607C 22104V   26084.20048611  .00032948  00000+0  20658-2 0   845
2 53607  53.2151 169.5418 0001150  97.5682 344.3567 15.08826966    12
STARLINK-4647           
1 53608C 22104W   26084.31298611 -.00016909  00000+0 -10603-2 0   845
2 53608  53.2143 164.1781 0001321  92.3046 168.4145 15.08850158    12
STARLINK-4660           
1 53609C 22104X   26084.24701389  .00011779  00000+0  73842-3 0   842
2 53609  53.2140 168.9819 0001336 105.5384  49.4614 15.08844661    13
STARLINK-4610           
1 53610C 22104Y   26084.27618056 -.00004746  00000+0 -29752-3 0   844
2 53610  53.2149 164.2747 0001338  95.9775 359.5702 15.08850156    10
STARLINK-4658           
1 53612C 22104AA  26084.29284722 -.00010151  00000+0 -63652-3 0   841
2 53612  53.2150 164.1497 0001575 100.2204 111.1588 15.08843114    15
STARLINK-4655           
1 53613C 22104AB  26084.23798611  .00009050  00000+0  56718-3 0   842
2 53613  53.2145 164.4746 0001160  94.3744 138.7286 15.08856366    15
STARLINK-4605           
1 53616C 22104AE  26084.26506944 -.00011599  00000+0 -72727-3 0   845
2 53616  53.2143 154.0753 0001344  97.1936 338.3207 15.08849080    13
STARLINK-4609           
1 53619C 22104AH  26084.22340278  .00017322  00000+0  10862-2 0   849
2 53619  53.2151 164.3813 0001123 108.5034 125.4964 15.08831114    11
STARLINK-4615           
1 53620C 22104AJ  26084.27548611 -.00005286  00000+0 -33136-3 0   845
2 53620  53.2153 163.9899 0001372  92.8466 144.3267 15.08855261    19
STARLINK-4608           
1 53621C 22104AK  26084.27687500 -.00003461  00000+0 -21695-3 0   847
2 53621  53.2155 164.1022 0001317  98.2594  86.3805 15.08853445    19
STARLINK-4568           
1 53622C 22104AL  26084.26923611 -.00000589  00000+0 -36918-4 0   846
2 53622  53.2142 163.7861 0001373 104.7579 218.5815 15.08842474    10
STARLINK-4573           
1 53623C 22104AM  26084.25326389  .00007521  00000+0  47141-3 0   845
2 53623  53.2153 164.1289 0000695  82.2430  14.0359 15.08853699    17
STARLINK-4596           
1 53624C 22104AN  26084.30118056 -.00013109  00000+0 -82177-3 0   841
2 53624  53.2147 163.7955 0001436  88.3938 328.4668 15.08857596    15
STARLINK-4554           
1 53626C 22104AQ  26084.30604167 -.00013525  00000+0 -84759-3 0   846
2 53626  53.2143 163.6570 0001432  85.1117  58.1976 15.08867787    17
STARLINK-4595           
1 53627C 22104AR  26084.22201389  .00023908  00000+0  14984-2 0   843
2 53627  53.2145 164.1103 0001396  84.4033 282.1959 15.08846690    16
STARLINK-4600           
1 53628C 22104AS  26084.23520833  .00010515  00000+0  65921-3 0   841
2 53628  53.2142 163.8972 0001100  99.4152  59.0310 15.08842222    14
STARLINK-4602           
1 53629C 22104AT  26084.28659722 -.00007235  00000+0 -45351-3 0   849
2 53629  53.2144 163.7827 0001335  89.9367 287.7051 15.08856528    13
STARLINK-4598           
1 53630C 22104AU  26084.29562500 -.00018308  00000+0 -11480-2 0   847
2 53630  53.2143 154.1374 0001288  85.4148 150.8427 15.08849308    15
STARLINK-4599           
1 53631C 22104AV  26084.23937500  .00008517  00000+0  53433-3 0   842
2 53631  53.2138 163.8402 0001450  92.6425 108.5473 15.08814894    11
STARLINK-4606           
1 53632C 22104AW  26084.27687500 -.00014917  00000+0 -93605-3 0   847
2 53632  53.2141 154.1328 0001159  91.3025  88.3860 15.08821830    17
STARLINK-4593           
1 53633C 22104AX  26084.22965278  .00001610  00000+0  10092-3 0   847
2 53633  53.2143 154.3839 0001102  91.3315 171.6134 15.08846270    14
STARLINK-4592           
1 53634C 22104AY  26084.32409722 -.00052004  00000+0 -32590-2 0   847
2 53634  53.2143 153.8422 0001087  87.1214  29.1933 15.08887240    16
STARLINK-4586           
1 53636C 22104BA  26084.22965278  .00002624  00000+0  16449-3 0   848
2 53636  53.2148 154.1866 0001254  94.2480 268.7937 15.08854099    10
STARLINK-4396           
1 53637C 22104BB  26084.24006944 -.00000340  00000+0 -21298-4 0   841
2 53637  53.2146 154.4954 0001353  91.6696 142.5804 15.08849688    10
STARLINK-4594           
1 53638C 22104BC  26084.25743056 -.00006815  00000+0 -42732-3 0   843
2 53638  53.2154 153.8664 0001365  94.2710 159.9127 15.08843846    10
STARLINK-4422           
1 53639C 22104BD  26084.21437500  .00009357  00000+0  58668-3 0   841
2 53639  53.2151 154.2152 0001384  98.8437 201.2273 15.08839408    14
STARLINK-4597           
1 53640C 22104BE  26084.18868056  .00016823  00000+0  10549-2 0   844
2 53640  53.2152 154.2913 0001324  95.2067  85.2437 15.08832982    18
STARLINK-4588           
1 53641C 22104BF  26084.30881944 -.00029941  00000+0 -18768-2 0   848
2 53641  53.2146 153.8675 0001359  95.3964 317.9005 15.08867125    10
STARLINK-4622           
1 53648C 22105A   26084.29840278 -.00060715  00000+0 -42163-2 0   849
2 53648  97.6048 325.5447 0002097  91.6993   6.6034 15.05677447    13
STARLINK-4386           
1 53649C 22105B   26084.24145833 -.00032001  00000+0 -19189-2 0   849
2 53649  97.6034 326.6379 0002178  89.6443 260.7014 15.11061298    11
STARLINK-4380           
1 53650C 22105C   26084.23937500 -.00051487  00000+0 -35744-2 0   844
2 53650  97.6048 325.4714 0002045  88.3247  35.2238 15.05684277    13
STARLINK-4388           
1 53651C 22105D   26084.20465278 -.00006955  00000+0 -42669-3 0   845
2 53651  97.6036 326.5470 0001948  89.7377 314.5890 15.10217436    14
STARLINK-4374           
1 53652C 22105E   26084.30048611 -.00055507  00000+0 -39391-2 0   849
2 53652  97.6033 325.4950 0001724  94.6365 290.9471 15.04864617    11
STARLINK-4390           
1 53653C 22105F   26084.24562500  .00151610  00000+0  98288-2 0   841
2 53653  97.6037 325.4569 0001773  90.7944  44.3484 15.08119892    13
STARLINK-4420           
1 53654C 22105G   26084.30256944 -.00059052  00000+0 -41003-2 0   843
2 53654  97.6041 326.5655 0002196  80.8872 347.6967 15.05680527    17
STARLINK-4470           
1 53655C 22105H   26084.32062500 -.00042785  00000+0 -26260-2 0   842
2 53655  97.6042 326.5923 0001902  92.4950  77.5228 15.10221422    17
STARLINK-4466           
1 53656C 22105J   26084.25256944 -.00046911  00000+0 -32570-2 0   848
2 53656  97.6044 325.4778 0002107  92.3895 147.6419 15.05678348    19
STARLINK-4469           
1 53657C 22105K   26084.29076389  .00481660  00000+0  68099-3 0   844
2 53657  97.6282 352.0300 0002153 133.9770 305.9340 16.05443506    15
STARLINK-4452           
1 53658C 22105L   26084.22131944 -.00031034  00000+0 -21545-2 0   849
2 53658  97.6033 326.5730 0003161  84.7644 128.6593 15.05671381    19
STARLINK-4473           
1 53660C 22105N   26084.27062500 -.00048492  00000+0 -34409-2 0   847
2 53660  97.6033 325.5071 0003023  89.6398 302.7370 15.04862916    19
STARLINK-4472           
1 53661C 22105P   26084.23659722 -.00042858  00000+0 -33433-2 0   848
2 53661  97.6059 325.4281 0001277  93.3173 348.3155 15.01281154    15
STARLINK-4357           
1 53662C 22105Q   26084.29493056 -.00052312  00000+0 -36329-2 0   844
2 53662  97.6044 326.5278 0002657  87.8498 314.3680 15.05670542    12
STARLINK-4457           
1 53663C 22105R   26084.22756944 -.00033631  00000+0 -23353-2 0   842
2 53663  97.6032 326.5769 0002451  91.0293 171.2494 15.05665978    17
